[{"OBJECT_NAME":"STARLINK-34049","OBJECT_ID":"2025-102W","EPOCH":"2026-03-09T12:40:44.661216","MEAN_MOTION":14.98327398,"ECCENTRICITY":0.00034015,"INCLINATION":70.0009,"RA_OF_ASC_NODE":115.0399,"ARG_OF_PERICENTER":268.4205,"MEAN_ANOMALY":91.6564,"EPHEMERIS_TYPE":0,"CLASSIFICATION_TYPE":"U","NORAD_CAT_ID":64042,"ELEMENT_SET_NO":999,"REV_AT_EPOCH":4592,"BSTAR":0.00010151791,"MEAN_MOTION_DOT":1.118e-5,"MEAN_MOTION_DDOT":0},{"OBJECT_NAME":"FENGYUN 1C DEB","OBJECT_ID":"1999-025AEH","EPOCH":"2026-03-09T22:48:21.206880","MEAN_MOTION":14.8573293,"ECCENTRICITY":0.01077809,"INCLINATION":98.8499,"RA_OF_ASC_NODE":243.2798,"ARG_OF_PERICENTER":197.684,"MEAN_ANOMALY":322.9923,"EPHEMERIS_TYPE":0,"CLASSIFICATION_TYPE":"U","NORAD_CAT_ID":30418,"ELEMENT_SET_NO":999,"REV_AT_EPOCH":1886,"BSTAR":0.0011748472,"MEAN_MOTION_DOT":0.00011272,"MEAN_MOTION_DDOT":0}]
